OPS 6582 (TRANSIT 5B-5) 
1 00965U 64083D   23249.79329127  .00000077  00000+0  95427-4 0  9995
2 00965  90.0396 196.9952 0041563   7.0911   8.7357 13.56835863906044
OSCAR 7 (AO-7)          
1 07530U 74089B   23249.83458431 -.00000035  00000+0  68348-4 0  9990
2 07530 101.9551 237.0821 0011839 268.1841 209.7284 12.53666637233403
UOSAT 2 (UO-11)         
1 14781U 84021B   23249.72121530  .00001841  00000+0  22079-3 0  9993
2 14781  97.6659 223.5415 0006639 300.7059  59.3502 14.85205271106247
NOAA 9                  
1 15427U 84123A   23249.92877646  .00000203  00000+0  12543-3 0  9998
2 15427  99.0972 235.7337 0014613 344.9680  44.4173 14.16406594999815
LUSAT (LO-19)           
1 20442U 90005G   23249.42905233  .00000230  00000+0  10040-3 0  9996
2 20442  98.8523 227.7123 0010792 304.1161  55.8998 14.33308408756981
ITAMSAT (IO-26)         
1 22826U 93061D   23249.89676258  .00000170  00000+0  82342-4 0  9990
2 22826  98.8290 293.9395 0009187 168.6911 191.4479 14.30705813562241
RADIO ROSTO (RS-15)     
1 23439U 94085A   23249.95138252 -.00000043  00000+0 -40310-5 0  9993
2 23439  64.8157 143.4490 0160051 195.8069 163.7824 11.27575438181543
JAS-2 (FO-29)           
1 24278U 96046B   23249.37685554 -.00000013  00000+0  23846-4 0  9992
2 24278  98.5375 216.9008 0349718 206.1657 152.1439 13.53153247335917
NOAA 15                 
1 25338U 98030A   23249.87976846  .00000228  00000+0  11274-3 0  9995
2 25338  98.6020 277.5247 0011473  77.4796 282.7667 14.26383967316656
TECHSAT 1B (GO-32)      
1 25397U 98043D   23249.87365150  .00000138  00000+0  80077-4 0  9992
2 25397  98.8764 208.0640 0000235 229.1823 130.9335 14.23905201306951
ISS (ZARYA)             
1 25544U 98067A   23250.13779943  .00012116  00000+0  21777-3 0  9992
2 25544  51.6414 282.5514 0005816  37.2180   2.5353 15.50274920414508
ORSTED                  
1 25635U 99008B   23249.30882045  .00001240  00000+0  29678-3 0  9998
2 25635  96.4741  14.7878 0136299 196.5286 163.1448 14.49201339294835
PHASE 3D (AO-40)        
1 26609U 00072B   23244.96108076 -.00000373  00000+0  00000+0 0  9996
2 26609   6.1973 167.9028 7915517 194.0573 112.1127  1.25587353104849
PCSAT (NO-44)           
1 26931U 01043C   23249.27823697  .00000235  00000+0  12084-3 0  9990
2 26931  67.0535 347.4336 0007559 260.3246  99.7002 14.30975427145186
SAUDISAT 1C (SO-50)     
1 27607U 02058C   23249.79767048  .00002259  00000+0  32576-3 0  9998
2 27607  64.5573  14.6826 0060490 207.5584 152.2309 14.77567875114286
CUTE-1 (CO-55)          
1 27844U 03031E   23249.47199198  .00000395  00000+0  19543-3 0  9991
2 27844  98.6803 255.5477 0008609 247.8467 112.1797 14.22863884 47293
CUBESAT XI-IV (CO-57)   
1 27848U 03031J   23248.94860693  .00000315  00000+0  16100-3 0  9999
2 27848  98.6838 255.4158 0008459 266.9869  93.0341 14.22362763 46988
MOZHAYETS 4 (RS-22)     
1 27939U 03042A   23249.90968159  .00001564  00000+0  27744-3 0  9998
2 27939  98.2547  37.5466 0011474 235.4866 285.7253 14.68637519 66407
INMARSAT 4-F1           
1 28628U 05009A   23249.74424573 -.00000272  00000+0  00000+0 0  9996
2 28628   3.9841  39.1385 0002912 143.5900 214.2789  1.00272182 67490
NOAA 18                 
1 28654U 05018A   23249.85410626  .00000263  00000+0  16465-3 0  9996
2 28654  98.9045 323.8328 0014982 145.9241 214.2895 14.13000136943018
CUBESAT XI-V            
1 28895U 05043F   23249.57655583  .00001979  00000+0  36970-3 0  9991
2 28895  98.1641  21.0764 0016431 171.8878 188.2594 14.65968054952739
METOP-A                 
1 29499U 06044A   23249.90196810  .00002068  00000+0  27313-3 0  9995
2 29499  98.3933 312.6122 0193980  45.9927  67.4098 14.68922575876175
CARTOSAT-2 (IRS-P7)     
1 29710U 07001B   23249.70988454  .00047214  00000+0  49804-3 0  9997
2 29710  97.9020  35.5525 0082875 263.1969  95.9851 15.59796798904982
CAPE-1                  
1 31130U 07012P   23249.79907989  .00002434  00000+0  50267-3 0  9991
2 31130  98.3115 193.8847 0092626 350.6526   9.2945 14.58666357870127
CARTOSAT-2A             
1 32783U 08021A   23249.90129367  .00001129  00000+0  16077-3 0  9997
2 32783  97.9089 309.0110 0013029 156.9479 203.2319 14.78687244828905
CUTE-1.7+APD II (CO-65) 
1 32785U 08021C   23249.71535763  .00004454  00000+0  43391-3 0  9992
2 32785  97.7139 213.9925 0011738 182.8272 177.2883 14.92941057832982
COMPASS-1               
1 32787U 08021E   23249.39535579  .00008485  00000+0  63829-3 0  9999
2 32787  97.5928 224.0886 0015681  95.4872 264.8142 15.02687273834840
AAUSAT-II               
1 32788U 08021F   23249.41188062  .00010585  00000+0  73653-3 0  9994
2 32788  97.5684 227.1437 0010275  81.9069 278.3324 15.05615797835329
DELFI-C3 (DO-64)        
1 32789U 08021G   23249.00143146  .00113013  00000+0  20336-2 0  9993
2 32789  97.2963 270.5937 0007902 156.0028 204.1593 15.49388680839848
SEEDS II (CO-66)        
1 32791U 08021J   23249.74099754  .00007154  00000+0  61381-3 0  9996
2 32791  97.6644 219.3521 0013641 129.9450 230.2973 14.97721099833861
YUBILEINY (RS-30)       
1 32953U 08025A   23249.89325617  .00000021  00000+0  82673-4 0  9990
2 32953  82.4977 266.2726 0019587  10.3513 349.7967 12.43128605693662
FENGYUN 3A              
1 32958U 08026A   23249.87048734  .00000182  00000+0  10738-3 0  9996
2 32958  98.5617 200.8594 0008831 165.7979 194.3448 14.18910980791525
PRISM (HITOMI)          
1 33493U 09002B   23249.83733381  .00011115  00000+0  71892-3 0  9997
2 33493  98.2446 270.1830 0017340 129.2576 231.0191 15.08261615796043
STARS (KUKAI)           
1 33498U 09002G   23249.55439333  .00003084  00000+0  39056-3 0  9993
2 33498  98.1260 153.7218 0008595 248.5629 111.4667 14.82525768787461
KKS-1 (KISEKI)          
1 33499U 09002H   23249.88256392  .00001554  00000+0  22630-3 0  9992
2 33499  98.1611 143.2137 0008095 334.8730  25.2085 14.77323585786128
NOAA 19                 
1 33591U 09005A   23249.83807823  .00000231  00000+0  14893-3 0  9997
2 33591  99.0928 297.0434 0014016  17.5538 342.6114 14.12815729751217
SWISSCUBE               
1 35932U 09051B   23249.11162227  .00001104  00000+0  25120-3 0  9997
2 35932  98.5088 121.3507 0008548 112.4815 247.7289 14.57927488741004
BEESAT-1                
1 35933U 09051C   23249.07931757  .00000952  00000+0  21862-3 0  9994
2 35933  98.5015 122.5621 0006648 121.9302 238.2543 14.57810196741072
ITUPSAT1                
1 35935U 09051E   23249.10396616  .00000871  00000+0  20509-3 0  9996
2 35935  98.5114 122.5020 0008841 128.6587 231.5403 14.56845653740742
XIWANG-1 (HOPE-1)       
1 36122U 09072B   23249.86430518 -.00000006  00000+0  97851-4 0  9997
2 36122 100.2463 211.1919 0007998  39.2462 320.9230 13.16386698659544
CARTOSAT-2B             
1 36795U 10035A   23249.87063776  .00001054  00000+0  15053-3 0  9999
2 36795  97.9032 308.8211 0012156 235.1737 124.8331 14.78722333709950
TISAT 1                 
1 36799U 10035E   23249.90798725  .00005726  00000+0  50037-3 0  9997
2 36799  98.1229 122.7402 0011981  66.3515 293.8962 14.97147865714453
FENGYUN 3B              
1 37214U 10059A   23249.91995928  .00000113  00000+0  83233-4 0  9991
2 37214  99.0829 268.6668 0022335 172.9507 304.1752 14.14372035664024
JUGNU                   
1 37839U 11058B   23249.55163921  .00000480  00000+0  11306-3 0  9992
2 37839  19.9621 349.2635 0018998  36.6763  70.3825 14.13001560615411
SRMSAT                  
1 37841U 11058D   23249.84507872  .00000483  00000+0  11991-3 0  9997
2 37841  19.9723  76.2964 0011813 209.0823 269.9179 14.10936986614357
M-CUBED & EXP-1 PRIME   
1 37855U 11061F   23249.74617985  .00029820  00000+0  82782-3 0  9994
2 37855 101.7106 257.7630 0109904 149.0389 211.7377 15.30951292649029
HORYU-2                 
1 38340U 12025D   23249.79544959  .00003159  00000+0  43414-3 0  9996
2 38340  98.1691 339.7228 0009891 230.4295 129.6042 14.79042562598152
METOP-B                 
1 38771U 12049A   23249.90984094  .00000151  00000+0  88634-4 0  9994
2 38771  98.6713 307.8901 0001312 104.4186  70.1121 14.21510326569165
SARAL                   
1 39086U 13009A   23249.90629926  .00000161  00000+0  75929-4 0  9995
2 39086  98.5499  74.0163 0002867  60.6616 299.4853 14.32254499550385
AAUSAT 3                
1 39087U 13009B   23249.75316355  .00000802  00000+0  28491-3 0  9991
2 39087  98.3799  82.7397 0012619  19.4945 340.6722 14.36943329551325
STRAND-1                
1 39090U 13009E   23248.98934279  .00000371  00000+0  14322-3 0  9999
2 39090  98.3877  80.1327 0009532  30.3499 329.8237 14.35676195551319
BRITE-AUSTRIA           
1 39091U 13009F   23249.76179516  .00000242  00000+0  98840-4 0  9997
2 39091  98.3909  80.1230 0011072  33.8022 326.3868 14.35538371551451
UNIBRITE                
1 39092U 13009G   23249.82337623  .00000278  00000+0  11151-3 0  9998
2 39092  98.3946  80.0379 0009896  30.0899 330.0854 14.35411957551411
BEESAT-3                
1 39135U 13015F   23249.87281932  .00074190  00000+0  12280-2 0  9996
2 39135  64.8548  61.2305 0017555 249.5295 110.3963 15.51589540574578
BEESAT-2                
1 39136U 13015G   23249.92338453  .00052949  00000+0  10275-2 0  9994
2 39136  64.8649  74.2978 0027726 263.3604  96.4380 15.46926665574293
NEE-01 PEGASO           
1 39151U 13018B   23249.76183817  .00002829  00000+0  35232-3 0  9991
2 39151  98.0146   0.1214 0014857 244.3645 115.6033 14.83229140559776
CUBEBUG-1 (CAPITAN BETO)
1 39153U 13018D   23249.76515969  .00003482  00000+0  42034-3 0  9994
2 39153  98.0460   6.6216 0014679 237.6117 122.3677 14.84378462559896
ESTCUBE 1               
1 39161U 13021C   23249.17892513  .00002011  00000+0  30859-3 0  9994
2 39161  97.8658 319.1390 0010492  73.2979 286.9381 14.74646744555069
FENGYUN 3C              
1 39260U 13052A   23249.92420170  .00000157  00000+0  10023-3 0  9997
2 39260  98.4294 259.6939 0012256  69.6847 290.5644 14.16071753515036
